SL-14 R/B               
1 18749U 88001B   21317.56274481  .00000115  00000-0  11053-4 0  9998
2 18749  82.5160 235.8175 0019915  47.2358 125.7324 14.83287712808078
COSMOS 1933             
1 18958U 88020A   21317.59185795  .00000187  00000-0  11437-4 0  9998
2 18958  82.5297 349.0114 0011142 194.0943 165.9974 15.04072242812354
SL-3 R/B                
1 19046U 88032B   21317.53448739  .00000117  00000-0  12950-4 0  9998
2 19046  97.3898 321.2358 0034602 254.1992 105.5418 15.03098228814170
SL-16 R/B               
1 19120U 88039B   21317.56748497 -.00000149  00000-0 -47902-4 0  9997
2 19120  71.0132 162.1640 0023971 241.7157 118.1549 14.19227659734591
COSMOS 1953             
1 19210U 88050A   21317.58508261  .00000309  00000-0  18889-4 0  9993
2 19210  82.5153 270.5962 0014230 155.4725 204.7182 15.06479445799058
SL-8 R/B                
1 19257U 88053B   21317.59199906 -.00000045  00000-0 -61476-5 0  9990
2 19257  74.0454 135.5700 0020732 344.5548  75.7063 14.37539799749889
COSMOS 1975             
1 19573U 88093A   21317.46954963  .00000305  00000-0  19250-4 0  9992
2 19573  82.5213 226.1298 0013092 202.8421 157.2226 15.05385048780786
SL-14 R/B               
1 19574U 88093B   21317.63447073  .00000133  00000-0  13187-4 0  9993
2 19574  82.5323  79.2178 0020974 202.7737 166.6902 14.83399362767092
SL-16 R/B               
1 19650U 88102B   21317.48168297 -.00000214  00000-0 -84567-4 0  9992
2 19650  71.0008 229.0000 0016691 254.8141 105.1136 14.15813240703635
INTERCOSMOS 24          
1 20261U 89080A   21317.54082076  .00000068  00000-0  17177-4 0  9993
2 20261  82.6055  47.5659 1201917 341.5832  14.5042 12.56226356468543
SL-14 R/B               
1 20262U 89080C   21317.46521867  .00000189  00000-0  52018-4 0  9998
2 20262  82.5900 104.6683 1236744 185.0724 173.6803 12.48995185463159
DELTA 2 R/B(1)          
1 20303U 89085B   21317.53047171  .00002976  00000-0  89758-4 0  9995
2 20303  35.6429  14.7997 0087758  76.3993 284.6492 15.30409486747315
DELTA 1 R/B             
1 20323U 89089B   21317.48141063  .00000045  00000-0  20668-4 0  9990
2 20323  97.1135  28.5047 0072871  54.9687 305.8318 14.48432797667273
ARIANE 40 R/B           
1 20443U 90005H   21317.46638546  .00000028  00000-0  23872-4 0  9999
2 20443  98.5129  22.5499 0009417 247.9038 112.1150 14.38154418665999
DELTA 2 R/B(1)          
1 20453U 90008B   21317.53180685  .00001752  00000-0  96071-4 0  9993
2 20453  35.6253 101.6376 0275517 281.0251  75.9594 14.87305881687724
COSMOS 2058             
1 20465U 90010A   21317.53613925  .00000488  00000-0  38679-4 0  9992
2 20465  82.4865 138.5654 0013854 268.0159  91.9477 14.98344408705291
SL-14 R/B               
1 20466U 90010B   21317.49202667  .00000122  00000-0  12532-4 0  9990
2 20466  82.5004 305.6872 0022081  88.9485 271.4259 14.81449717694831
SL-14 R/B               
1 20511U 90018B   21317.35228071  .00000107  00000-0  11042-4 0  9999
2 20511  82.5235 254.4880 0016205 229.3356 284.1695 14.80104573689125
HST                     
1 20580U 90037B   21317.26795988  .00000769  00000-0  35349-4 0  9992
2 20580  28.4688 160.3001 0002528 223.9663 299.2799 15.09837298533507
SL-16 R/B               
1 20625U 90046B   21317.56125897 -.00000121  00000-0 -38154-4 0  9992
2 20625  70.9999   9.0916 0014625 190.2961 169.7864 14.14671997625329
COSMOS 2084             
1 20663U 90055A   21317.24256307  .00000441  00000-0  57716-4 0  9998
2 20663  62.7937 252.3248 0092051  26.2390 334.3324 14.92374341700027
SL-6 R/B(2)             
1 20666U 90055D   21317.07526737  .00000175  00000-0  32910-4 0  9992
2 20666  62.7829 167.9956 0115061  50.8126 310.3119 14.92630334701950
SL-8 R/B                
1 20775U 90078B   21317.54962577  .00002396  00000-0  11231-3 0  9995
2 20775  82.9249 162.0040 0564902  39.6781 324.4345 14.36741547579491
SL-8 R/B                
1 21088U 91006B   21317.58193091  .00000082  00000-0  67168-4 0  9997
2 21088  82.9417 262.9480 0023593 129.1632  44.0661 13.77189266546971
OKEAN-3                 
1 21397U 91039A   21317.54790061  .00000418  00000-0  37429-4 0  9992
2 21397  82.5243  47.9356 0016364 246.7985 113.1512 14.93220117628957
COSMOS 2151             
1 21422U 91042A   21317.57590716  .00000269  00000-0  23801-4 0  9996
2 21422  82.4987 153.4117 0013171 320.1971  39.8282 14.92338088627484
SL-14 R/B               
1 21423U 91042B   21317.55821088  .00000109  00000-0  11330-4 0  9991
2 21423  82.4941 256.3801 0018099  19.8333 340.3580 14.79853236619693
ERS-1                   
1 21574U 91050A   21317.34966873  .00000072  00000-0  38610-4 0  9995
2 21574  98.6684 278.9189 0032465 198.0366 161.9671 14.37828323588967
ARIANE 40 R/B           
1 21610U 91050F   21317.45794986  .00000042  00000-0  26646-4 0  9995
2 21610  98.4090  25.8900 0003941 141.8673 228.5919 14.40977518591729
INTERCOSMOS 25          
1 21819U 91086A   21317.59533613 -.00000049  00000-0 -10153-4 0  9993
2 21819  82.5993 178.1805 1513776 256.2491  86.6122 12.05460152306222
SL-8 R/B                
1 21876U 92008B   21317.60772948  .00000070  00000-0  56616-4 0  9995
2 21876  82.9285   0.2695 0034026 216.5953 253.2126 13.75685358492566
SL-8 R/B                
1 21938U 92020B   21317.55849782  .00000041  00000-0  26866-4 0  9995
2 21938  82.9315 244.8618 0029932  21.7103 151.3303 13.75285968484337
COSMOS 2219             
1 22219U 92076A   21317.57011643  .00000213  00000-0  13762-3 0  9999
2 22219  71.0616  73.7073 0016141  88.8854 271.4118 14.13675652495462
SL-16 R/B               
1 22220U 92076B   21317.63132425 -.00000136  00000-0 -44221-4 0  9991
2 22220  71.0003 269.1930 0014019 329.4045 203.0609 14.16479573498483
COSMOS 2221             
1 22236U 92080A   21317.58045705  .00000307  00000-0  30563-4 0  9993
2 22236  82.5069 337.7897 0017910  58.1358 302.1600 14.88143308545724
SL-16 R/B               
1 22285U 92093B   21317.56869086  .00000142  00000-0  97543-4 0  9993
2 22285  71.0225  73.9291 0005201 217.4233 142.6528 14.15070846490028
COSMOS 2228             
1 22286U 92094A   21317.38914984  .00000337  00000-0  33533-4 0  9998
2 22286  82.5175 294.8125 0021260 169.5711 190.5953 14.88369045540887
SL-16 R/B               
1 22566U 93016B   21317.41351603 -.00000272  00000-0 -11579-3 0  9996
2 22566  71.0067 286.8884 0011587 215.0968 144.9392 14.14978542479031
COSMOS 2242             
1 22626U 93024A   21317.28360199  .00000297  00000-0  29423-4 0  9990
2 22626  82.5196 323.2621 0019118 169.7766 190.3844 14.88215320545256
SL-16 R/B               
1 22803U 93059B   21317.58950649 -.00000116  00000-0 -34050-4 0  9997
2 22803  70.9878  95.7494 0014918  93.3298 266.9532 14.16844378456128
ARIANE 40 R/B           
1 22830U 93061H   21317.40265977  .00000008  00000-0  20075-4 0  9994
2 22830  98.6958  15.3308 0009937 252.3900 107.6198 14.31498641468350
COSMOS 2278             
1 23087U 94023A   21317.46995806 -.00000115  00000-0 -35590-4 0  9994
2 23087  71.0533 233.2438 0011177 274.5241  85.4605 14.13833312421844
SL-16 R/B               
1 23088U 94023B   21317.59051741 -.00000415  00000-0 -19085-3 0  9993
2 23088  70.9967 141.9724 0003865 212.7915 147.2968 14.14697598423020
SL-16 R/B               
1 23343U 94074B   21317.63199008  .00000049  00000-0  14121-4 0  9995
2 23343  97.9271   9.8353 0005604 299.1320 221.6209 14.76916766454302
SL-16 R/B               
1 23405U 94077B   21317.61762022 -.00000074  00000-0 -13334-4 0  9992
2 23405  70.9843  69.3444 0002291 339.2476  20.8553 14.15248557393083
ERS-2                   
1 23560U 95021A   21317.55541194  .00001739  00000-0  74441-4 0  9995
2 23560  98.5272 188.3027 0002616 198.8287 161.2851 15.24494592420407
ARIANE 40+ R/B          
1 23561U 95021B   21317.59392435  .00000063  00000-0  35680-4 0  9993
2 23561  98.6563   8.7036 0007364 160.4597 319.1339 14.38060101392469
SL-16 R/B               
1 23705U 95058B   21317.53985944 -.00000245  00000-0 -10165-3 0  9994
2 23705  71.0230 250.3167 0012747 351.7987   8.2926 14.15157520344703
SL-16 R/B               
1 24298U 96051B   21317.59037255 -.00000144  00000-0 -51623-4 0  9998
2 24298  70.8216 266.3230 0017995 301.4318  58.5042 14.12406720298958
ORBVIEW 2 (SEASTAR)     
1 24883U 97037A   21317.57639002  .00000080  00000-0  45148-4 0  9991
2 24883  98.6588  75.5877 0002932  48.5560 311.5875 14.33649043282373
SL-16 R/B               
1 25400U 98043G   21317.59037026 -.00000002  00000-0  17660-4 0  9998
2 25400  98.6519 251.3047 0008837 278.8093  81.2086 14.25487489214268
SL-16 R/B               
1 25407U 98045B   21317.53715342 -.00000140  00000-0 -46697-4 0  9991
2 25407  71.0112 257.1593 0009891 269.6007  90.3983 14.15843001203847
ISS (ZARYA)             
1 25544U 98067A   21317.55098836  .00004948  00000-0  99330-4 0  9991
2 25544  51.6441 324.1655 0005062 192.2827 311.0150 15.48578308311749
CZ-4B R/B               
1 25732U 99025C   21317.56499201 -.00000007  00000-0  18651-4 0  9997
2 25732  98.8861 354.2362 0037340 182.6730 294.8028 14.17704057164662
OKEAN-O                 
1 25860U 99039A   21317.52820705  .00000115  00000-0  23921-4 0  9992
2 25860  98.1686 350.2063 0001609  73.1652 286.9734 14.76782729201386
SL-16 R/B               
1 25861U 99039B   21317.57575360  .00000070  00000-0  17002-4 0  9995
2 25861  98.1983 335.7950 0014566 309.8334 162.6398 14.78681841203598
DELTA 2 R/B             
1 25876U 99041E   21317.61854409 -.00000085  00000-0  27415-4 0  9999
2 25876  51.7640  80.2513 0531168  43.9327 320.2583 14.04678395140885
HELIOS 1B               
1 25977U 99064A   21317.58321953  .00000097  00000-0  19194-4 0  9992
2 25977  98.3214 138.0621 0002317 108.5416 251.6047 14.82606077451295
TERRA                   
1 25994U 99068A   21317.59634576  .00000091  00000-0  30110-4 0  9999
2 25994  98.1630  29.1833 0001131  97.9215  39.0682 14.57133129165065
